{"type": "FeatureCollection", "features": [ {"type": "Feature", "properties": {"norad_id": 17070, "name": "POLAR BEAR", "group": "nnss", "lat": -49.21632894888688, "lon": -177.0695221213435, "alt_km": 1010.8305791879075, "timestamp": "2025-12-22T16:55:17.731601+00:00", "meta": {"OBJECT_NAME": "POLAR BEAR", "OBJECT_ID": "1986-088A", "EPOCH": "2025-12-22T07:31:04.531296", "MEAN_MOTION": 13.75252766, "ECCENTRICITY": 0.00412923, "INCLINATION": 89.6171, "RA_OF_ASC_NODE": 183.3904, "ARG_OF_PERICENTER": 91.7076, "MEAN_ANOMALY": 80.7829, "EPHEMERIS_TYPE": 0, "CLASSIFICATION_TYPE": "U", "NORAD_CAT_ID": 17070, "ELEMENT_SET_NO": 999, "REV_AT_EPOCH": 96110, "BSTAR": 9.9847475e-05, "MEAN_MOTION_DOT": 1.08e-06, "MEAN_MOTION_DDOT": 0}, "tle": {"line1": "1 17070U 86088A   25356.31324689  .00000108  00000+0  99847-4 0  9991", "line2": "2 17070  89.6171 183.3904 0041292  91.7076  80.7829 13.75252766961100"}}, "geometry": {"type": "Point", "coordinates": [-177.0695221213435, -49.21632894888688]}}, {"type": "Feature", "properties": {"norad_id": 18361, "name": "OSCAR 27", "group": "nnss", "lat": -21.779154865064054, "lon": -100.50443043948816, "alt_km": 1019.4024708131719, "timestamp": "2025-12-22T16:55:17.731612+00:00", "meta": {"OBJECT_NAME": "OSCAR 27", "OBJECT_ID": "1987-080A", "EPOCH": "2025-12-22T03:25:18.934464", "MEAN_MOTION": 13.44908544, "ECCENTRICITY": 0.01036926, "INCLINATION": 90.3738, "RA_OF_ASC_NODE": 79.624, "ARG_OF_PERICENTER": 196.6975, "MEAN_ANOMALY": 163.075, "EPHEMERIS_TYPE": 0, "CLASSIFICATION_TYPE": "U", "NORAD_CAT_ID": 18361, "ELEMENT_SET_NO": 999, "REV_AT_EPOCH": 87683, "BSTAR": 0.00017610414, "MEAN_MOTION_DOT": 1.15e-06, "MEAN_MOTION_DDOT": 0}, "tle": {"line1": "1 18361U 87080A   25356.14258026  .00000115  00000+0  17610-3 0  9995", "line2": "2 18361  90.3738  79.6240 0103692 196.6975 163.0750 13.44908544876839"}}, "geometry": {"type": "Point", "coordinates": [-100.50443043948816, -21.779154865064054]}}, {"type": "Feature", "properties": {"norad_id": 18362, "name": "OSCAR 29", "group": "nnss", "lat": -16.984059514534092, "lon": -100.00994527110203, "alt_km": 1024.8181985608217, "timestamp": "2025-12-22T16:55:17.731622+00:00", "meta": {"OBJECT_NAME": "OSCAR 29", "OBJECT_ID": "1987-080B", "EPOCH": "2025-12-22T05:21:48.494016", "MEAN_MOTION": 13.44450163, "ECCENTRICITY": 0.01045285, "INCLINATION": 90.3749, "RA_OF_ASC_NODE": 80.0866, "ARG_OF_PERICENTER": 219.69, "MEAN_ANOMALY": 168.0965, "EPHEMERIS_TYPE": 0, "CLASSIFICATION_TYPE": "U", "NORAD_CAT_ID": 18362, "ELEMENT_SET_NO": 999, "REV_AT_EPOCH": 87637, "BSTAR": 0.00018133307, "MEAN_MOTION_DOT": 1.17e-06, "MEAN_MOTION_DDOT": 0}, "tle": {"line1": "1 18362U 87080B   25356.22347794  .00000117  00000+0  18133-3 0  9999", "line2": "2 18362  90.3749  80.0866 0104528 219.6900 168.0965 13.44450163876376"}}, "geometry": {"type": "Point", "coordinates": [-100.00994527110203, -16.984059514534092]}}, {"type": "Feature", "properties": {"norad_id": 19070, "name": "OSCAR 23", "group": "nnss", "lat": 86.07894416307926, "lon": -158.61777587643803, "alt_km": 1070.5035394160032, "timestamp": "2025-12-22T16:55:17.731653+00:00", "meta": {"OBJECT_NAME": "OSCAR 23", "OBJECT_ID": "1988-033A", "EPOCH": "2025-12-22T02:04:42.087936", "MEAN_MOTION": 13.27788655, "ECCENTRICITY": 0.01902795, "INCLINATION": 90.3203, "RA_OF_ASC_NODE": 16.682, "ARG_OF_PERICENTER": 153.9822, "MEAN_ANOMALY": 227.1802, "EPHEMERIS_TYPE": 0, "CLASSIFICATION_TYPE": "U", "NORAD_CAT_ID": 19070, "ELEMENT_SET_NO": 999, "REV_AT_EPOCH": 82377, "BSTAR": 0.00012926028, "MEAN_MOTION_DOT": 7.4e-07, "MEAN_MOTION_DDOT": 0}, "tle": {"line1": "1 19070U 88033A   25356.08659824  .00000074  00000+0  12926-3 0  9995", "line2": "2 19070  90.3203  16.6820 0190279 153.9822 227.1802 13.27788655823778"}}, "geometry": {"type": "Point", "coordinates": [-158.61777587643803, 86.07894416307926]}}, {"type": "Feature", "properties": {"norad_id": 19071, "name": "OSCAR 32", "group": "nnss", "lat": -34.21601590645398, "lon": -163.38453012730227, "alt_km": 1121.1976310643659, "timestamp": "2025-12-22T16:55:17.731678+00:00", "meta": {"OBJECT_NAME": "OSCAR 32", "OBJECT_ID": "1988-033B", "EPOCH": "2025-12-21T19:01:45.302880", "MEAN_MOTION": 13.27955349, "ECCENTRICITY": 0.01890284, "INCLINATION": 90.3209, "RA_OF_ASC_NODE": 16.8054, "ARG_OF_PERICENTER": 141.7111, "MEAN_ANOMALY": 32.0527, "EPHEMERIS_TYPE": 0, "CLASSIFICATION_TYPE": "U", "NORAD_CAT_ID": 19071, "ELEMENT_SET_NO": 999, "REV_AT_EPOCH": 82385, "BSTAR": 0.00015274589, "MEAN_MOTION_DOT": 8.6e-07, "MEAN_MOTION_DDOT": 0}, "tle": {"line1": "1 19071U 88033B   25355.79288545  .00000086  00000+0  15275-3 0  9994", "line2": "2 19071  90.3209  16.8054 0189028 141.7111  32.0527 13.27955349823854"}}, "geometry": {"type": "Point", "coordinates": [-163.38453012730227, -34.21601590645398]}}, {"type": "Feature", "properties": {"norad_id": 19223, "name": "NOVA 2", "group": "nnss", "lat": -49.26925446475563, "lon": -101.72458540947159, "alt_km": 1191.692112453551, "timestamp": "2025-12-22T16:55:17.731696+00:00", "meta": {"OBJECT_NAME": "NOVA 2", "OBJECT_ID": "1988-052A", "EPOCH": "2025-12-22T07:00:42.346656", "MEAN_MOTION": 13.22936896, "ECCENTRICITY": 0.00297744, "INCLINATION": 89.9868, "RA_OF_ASC_NODE": 78.2606, "ARG_OF_PERICENTER": 350.5098, "MEAN_ANOMALY": 73.6018, "EPHEMERIS_TYPE": 0, "CLASSIFICATION_TYPE": "U", "NORAD_CAT_ID": 19223, "ELEMENT_SET_NO": 999, "REV_AT_EPOCH": 81074, "BSTAR": 0.0001756493, "MEAN_MOTION_DOT": 8.3e-07, "MEAN_MOTION_DDOT": 0}, "tle": {"line1": "1 19223U 88052A   25356.29215679  .00000083  00000+0  17565-3 0  9999", "line2": "2 19223  89.9868  78.2606 0029774 350.5098  73.6018 13.22936896810749"}}, "geometry": {"type": "Point", "coordinates": [-101.72458540947159, -49.26925446475563]}}, {"type": "Feature", "properties": {"norad_id": 19419, "name": "OSCAR 25", "group": "nnss", "lat": -67.98039018578041, "lon": 20.360008575713078, "alt_km": 1087.893684044795, "timestamp": "2025-12-22T16:55:17.731708+00:00", "meta": {"OBJECT_NAME": "OSCAR 25", "OBJECT_ID": "1988-074A", "EPOCH": "2025-12-21T20:39:59.584320", "MEAN_MOTION": 13.42625, "ECCENTRICITY": 0.00949596, "INCLINATION": 90.0337, "RA_OF_ASC_NODE": 20.2738, "ARG_OF_PERICENTER": 219.4473, "MEAN_ANOMALY": 314.7401, "EPHEMERIS_TYPE": 0, "CLASSIFICATION_TYPE": "U", "NORAD_CAT_ID": 19419, "ELEMENT_SET_NO": 999, "REV_AT_EPOCH": 82762, "BSTAR": 0.00014504358, "MEAN_MOTION_DOT": 9.3e-07, "MEAN_MOTION_DDOT": 0}, "tle": {"line1": "1 19419U 88074A   25355.86110630  .00000093  00000+0  14504-3 0  9994", "line2": "2 19419  90.0337  20.2738 0094959 219.4473 314.7401 13.42625000827624"}}, "geometry": {"type": "Point", "coordinates": [20.360008575713078, -67.98039018578041]}}, {"type": "Feature", "properties": {"norad_id": 19420, "name": "OSCAR 31", "group": "nnss", "lat": 7.149835254292018, "lon": -159.36746144312173, "alt_km": 1046.6777553428155, "timestamp": "2025-12-22T16:55:17.731718+00:00", "meta": {"OBJECT_NAME": "OSCAR 31", "OBJECT_ID": "1988-074B", "EPOCH": "2025-12-22T03:53:19.034304", "MEAN_MOTION": 13.42586261, "ECCENTRICITY": 0.00933578, "INCLINATION": 90.0353, "RA_OF_ASC_NODE": 20.6262, "ARG_OF_PERICENTER": 212.7151, "MEAN_ANOMALY": 217.5501, "EPHEMERIS_TYPE": 0, "CLASSIFICATION_TYPE": "U", "NORAD_CAT_ID": 19420, "ELEMENT_SET_NO": 999, "REV_AT_EPOCH": 82777, "BSTAR": 0.00014692008, "MEAN_MOTION_DOT": 9.4e-07, "MEAN_MOTION_DDOT": 0}, "tle": {"line1": "1 19420U 88074B   25356.16202586  .00000094  00000+0  14692-3 0  9991", "line2": "2 19420  90.0353  20.6262 0093357 212.7151 217.5501 13.42586261827772"}}, "geometry": {"type": "Point", "coordinates": [-159.36746144312173, 7.149835254292018]}}]}